#dP2023  6 17  0  0  0.00000000      96 __u+U ITR00 FIT  IAC
## 2266 518400.00000000   900.00000000 60112 0.0000000000000
+  118   C06C07C08C09C10C11C12C14C16C19C20C21C22C23C24C25C26
+        C27C28C29C30C32C33C34C35C36C37C38C39C40C41C42C43C44
+        C45C46E02E03E04E05E07E08E09E10E11E12E13E14E15E18E19
+        E21E24E25E26E27E30E31E33E34E36G01G02G03G04G05G06G07
+        G08G09G10G11G12G13G14G15G16G17G18G19G20G21G22G23G24
+        G25G26G27G28G29G30G31G32J02J03J04R01R02R03R04R05R07
+        R08R09R11R12R13R14R15R16R17R18R19R20R21R22R24R25  0
++         7  8  9  7  9  7  7  6  7  5  6  5  7  7  6  7  6
++         6  7  7  7  7  5  7  6  7  7  8  8  7  8  7  7  5
++         8  7  7  6  6  6  5  5  6  6  6  7  6  7  6  6  6
++         6  6  6  6  6  7  5  6  6  6  6  6  6  5  5  5  6
++         5  6  6  6  6  5  6  5  6  5  5  5  6  6  7  5  6
++         6  6  6  6  5  7  6  6  8  7  8  7  6  6  7  6  6
++         6  7  6  7  6  6  6  6  6  7  7  7  7  6  7  6  0
%c M  cc GPS ccc cccc cccc cccc cccc ccccc ccccc ccccc ccccc
%c cc cc ccc ccc cccc cccc cccc cccc ccccc ccccc ccccc ccccc
%f  0.0000000  0.000000000  0.00000000000  0.000000000000000
%f  0.0000000  0.000000000  0.00000000000  0.000000000000000
%i    0    0    0    0      0      0      0      0         0
%i    0    0    0    0      0      0      0      0         0
/* INFORMATION & ANALYSIS CENTER (IAC)      ULTRA-RAPID DATA
/* S/V CLOCKS ARE ALIGNED TO GNSS TIME                      
/* G:C1WC2W R:C1PC2P E:C1XC5X C:C2IC6I J:C1CC2S             
/* PCV:IGS20_2247 OL/AL:FES2004  NONE     YN ORB:CoN CLK:CoN
*  2023 06 17  6 45  0.00000000
PC06 -16752.759538  25627.817052 -29063.390424   -176.543215
PC07  -9631.518865  40755.961455  -3873.410963   -184.781386
PC08   2256.662563  27242.296803  32157.555446    456.935152
PC09  -6314.606877  25182.984629 -32888.054296    524.767451
PC10  -3706.548344  41613.060014   2882.190913    -88.296267
PC11  26070.264898  -9122.330056   4134.508994    678.391662
PC12  19675.435694   4713.469765  19255.095192    718.818417
PC14  15279.775345  -8691.358280 -21672.948503    422.504748
PC16 -18759.362263  24978.862580 -28218.936147     40.122373
PC19 -12453.227725  18412.500625  16877.461373   -924.478657
PC20 -15677.364505   -615.216133  23089.338871    497.739660
PC21   9647.210211  20835.564153 -15823.559024   -924.292686
PC22  -1891.532133  27817.942546    551.949988   -437.255090
PC23  -1437.887660 -18736.704530  20640.582953   -960.486182
PC24  24989.876999   8514.567126   9068.528032     71.568374
PC25  15788.661548  -8360.256233  21435.528646    149.050651
PC26  19762.688409  18365.633176  -7210.954830   -135.896394
PC27 -12801.220393 -10971.724097 -22262.592034    156.354006
PC28   5576.497913 -18440.180073 -20191.449893    116.172967
PC29 -22178.839354  16137.632813   5129.885914    135.133773
PC30 -24630.786485   3235.257718 -12743.381238     -1.274375
PC32  -9790.755408 -20854.030642  15777.100327   -548.006823
PC33  12373.309883 -18459.956219 -16889.485511   -896.671953
PC34  25005.400488  -4266.972418  11593.972621    194.901362
PC35  -5510.326304  18818.119940  19854.204102    606.358926
PC36 -16566.349717   7390.490550 -21177.132552   -378.780207
PC37 -18565.295541 -19142.257935   8208.928793   -786.073537
PC38  -6098.288045  24263.233107  33998.888954     85.652385
PC39 -22718.368624  25547.325081 -24773.625377     -3.354332
PC40 -15386.015715  38623.354935  -6209.009160    -26.491408
PC41   2179.057028 -27802.677359  -1161.168154   -919.629583
PC42  15609.570194   2152.017586 -22987.429033   -646.341571
PC43  22622.606842 -15738.535653  -4340.809358     26.564443
PC44  13051.266398  10737.620974  22183.840457    140.656728
PC45   2026.258525  18825.226510 -20500.880048   -111.352370
PC46 -24791.616199  -7402.560698 -10407.748047    -62.123416
PE02  19307.654935  15575.602398  16155.642551     44.522548
PE03  17538.335967   3775.921984 -23543.805133    -27.174255
PE04 -21791.342623  15339.207037  12890.986730   -146.594092
PE05   2896.177227  21064.136092 -20582.573984    -57.243900
PE07  13484.158335 -25811.878831   5353.258083    -53.266880
PE08  21736.999991 -15156.600253 -13200.048383   -100.266874
PE09 -13587.080457  25766.647007  -5195.804423    -52.978801
PE10 -20261.919649  10470.132180  18852.270604   -541.813928
PE11  -9630.318780  14648.521708  23835.446349   2244.213893
PE12 -26866.616192   5037.661385  11370.093423   -582.953946
PE13  10414.320490 -14390.807262 -23680.080122    -19.283128
PE14   3619.449671 -27063.045779 -17599.708309    256.414315
PE15  27008.840085  -4847.826268 -11094.242227    -30.092069
PE18    849.230928  18123.210270  15006.568425    191.343805
PE19 -15928.797980  -6445.058205  24113.617180  -2281.158808
PE21 -12062.154589 -27027.552982    541.532825   -535.468490
PE24  -3264.070426  23098.640304 -18242.343626   -159.492177
PE25  11852.994916  27109.337779   -868.446854   -606.890335
PE26 -12819.883124 -15394.230175 -21794.109859    136.494977
PE27   2613.423973 -23498.241818  17810.764741    -76.701580
PE30  15892.586064  -5571.867021  24335.145061   -262.076055
PE31 -15579.821263   6173.326471 -24391.431296   -526.062124
PE33 -27522.725828  -7482.270171  -7940.165793   -443.057435
PE34  27602.033931   7336.346921   7778.372274    -51.252831
PE36  12039.944004  15380.434943  22232.073248    -72.478628
PG01 -15314.376147 -13695.095198 -17367.157457    177.899086
PG02  -9882.531723 -14065.305603 -19781.545128   -585.019796
PG03 -12950.642394 -22778.700135   4586.947150   -267.496608
PG04  -7733.842974 -13937.493001  21239.830923     70.534753
PG05   3293.792236  23958.256423  10670.033577   -131.421184
PG06 -22120.315507   6031.977042  13550.267257    584.586295
PG07 -25508.558249  -6886.324265   5081.981496    150.130482
PG08   1981.078714 -21416.796690 -15394.468325   -127.787350
PG09 -15470.649454  -4054.401912  21137.714046   -133.865010
PG10  14587.483350  -3133.482613 -21817.556630    -41.490277
PG11  -8361.818416  13497.252274  21293.902839   -238.780389
PG12   9616.333964  24737.208837   1543.106095   -389.587692
PG13 -10940.120690  21559.531314 -10931.185363    535.093267
PG14 -16229.260387   -165.001169 -21033.946655     93.249693
PG15   1499.992629  21507.772476 -15805.698013     49.606297
PG16   2398.763531 -22472.530019  13272.849079   -490.639534
PG17 -20543.500155  11094.452909 -12336.134287    718.619060
PG18  26181.335972   4747.311755   1462.759168   -310.770877
PG19 -20364.780155  15767.285339  -5989.680080    331.675886
PG20  -3033.707532  19316.472986  18091.669145    427.568917
PG21  -7196.687537 -14638.184948 -20582.210787    153.033388
PG22  18614.627220 -18653.372375  -2068.986475    499.121044
PG23  17520.243174   9811.643383 -17460.545199     33.974516
PG24  11480.219119  14751.030296 -19374.887350   -227.615451
PG25  16572.310948  17115.478253  11700.522701    450.330255
PG26   9767.778660 -13857.927754  20253.671170    238.852590
PG27  11690.852577 -22827.153160  -6267.169806     14.883707
PG28  23113.285204  -6062.644862  11571.553482     83.371028
PG29  13405.282912   7056.032578  21771.238367   -603.045794
PG30 -26130.834231    524.942483  -5347.283064   -510.501436
PG31  14175.161117 -11657.950235  19170.652382   -218.323282
PG32  19701.839278 -13769.917006 -10898.872006   -501.986345
PJ02 -20405.634878  24020.525969 -23352.286482     -0.594707
PJ03 -29542.545256  26884.829146  18826.701880      6.735990
PJ04 -28134.467691  28067.894432  19983.262459     95.496070
PR01  -7358.008289 -12926.649111  20731.139668     59.585113
PR02 -12049.447492   6544.973692  21569.394638    -22.696075
PR03  -9853.379404  21533.804369   9599.746384     79.827190
PR04  -2503.283231  24276.775693  -7404.772313    191.517383
PR05   6253.303262  13967.547407 -20400.122146    114.295628
PR07   9549.630924 -21948.300160  -8710.218551     58.211552
PR08   2135.602516 -24221.178617   7725.999908    -71.304763
PR09  18007.224682   4566.596725  17459.544969    126.240332
PR11  -8093.825590 -17955.457173  16233.976924    -81.678016
PR12 -19078.320755 -16842.146693  -1623.108740     28.212624
PR13 -18612.718866  -6535.620354 -16182.447140    -36.185342
PR14  -6276.053772   9326.332924 -22880.821965     24.806986
PR15   8895.151117  18417.966539 -15213.873044     88.536795
PR16  19119.947767  16800.858954   1370.461067     15.718062
PR17 -18398.789299  11609.542724  13284.952332    639.735455
PR18  -2844.257382  11378.916885  22665.271711     87.007127
PR19  12917.018756   6440.782183  21025.041953   -236.561896
PR20  24734.709615  -3883.732788   4768.967573    -94.903040
PR21  17507.036269 -11687.930510 -14433.907564    -15.852691
PR22   2030.727870 -11485.768163 -22662.263365     81.616709
PR24 -24671.071735   4980.297154  -4086.928366    -12.230435
PR25  18992.149660 -10910.808769 -13091.543473     59.154115
EOF
